0 WESTFORD NEEDLES
1 03235U 63014AZ  13265.13078156  .00022773  00000-0  19913-1 0  2049
2 03235 084.0357 331.6450 2911671 288.5727 066.2725 09.00898938 33547
0 WESTFORD NEEDLES
1 03235U 63014AZ  13266.12782598  .00027366  00000-0  23158-1 0  2051
2 03235 084.0449 331.3710 2915436 287.2703 060.2311 09.01008373 33630
0 WESTFORD NEEDLES
1 03235U 63014AZ  13269.11984929  .00028415  00000-0  28390-1 0  2065
2 03235 083.9789 330.4922 2891469 283.7339 046.5877 09.01211107 33900
0 WESTFORD NEEDLES
1 03235U 63014AZ  13270.12508241  .00046306  00000-0  37101-1 0  2077
2 03235 084.0522 330.2381 2920799 282.1546 068.2072 09.01325518 33995
0 WESTFORD NEEDLES
1 03235U 63014AZ  13271.12401652  .00045728  00000-0  36265-1 0  2084
2 03235 084.0623 329.9618 2921766 280.8810 069.6423 09.01395885 34089
0 WESTFORD NEEDLES
1 03235U 63014AZ  13272.12285243  .00046884  00000-0  36891-1 0  2091
2 03235 084.0640 329.6832 2922397 279.6117 071.0259 09.01467039 34175
0 WESTFORD NEEDLES
1 03235U 63014AZ  13275.11163638  .00038164  00000-0  31722-1 0  2108
2 03235 083.9564 328.7921 2913925 275.8444 051.7570 09.01699125 34449
0 WESTFORD NEEDLES
1 03235U 63014AZ  13276.11688897  .00061884  00000-0  46488-1 0  2119
2 03235 084.0282 328.5358 2926512 274.5190 075.1301 09.01797928 34532
0 WESTFORD NEEDLES
1 03235U 63014AZ  13276.62349287  .00049692  00000-0  37926-1 0  2123
2 03235 084.1138 328.4292 2924248 273.8867 279.9311 09.01852310 34572
0 WESTFORD NEEDLES
1 03235U 63014AZ  13277.11561084  .00047242  00000-0  35634-1 0  2133
2 03235 084.0889 328.2769 2925422 273.2560 077.7878 09.01921434 34611
0 WESTFORD NEEDLES
1 03235U 63014AZ  13278.10655953  .00041838  00000-0  32481-1 0  2156
2 03235 084.0631 327.9986 2921183 271.9882 055.5353 09.02016530 34700
0 WESTFORD NEEDLES
1 03235U 63014AZ  13278.11186184  .00058178  00000-0  43658-1 0  2144
2 03235 084.0859 327.9976 2925449 271.9839 072.7422 09.02021588 34709
